{
  "type": "FeatureCollection",
  "features": [
    {
      "type": "Feature",
      "properties": {
        "norad_id": 66174,
        "name": "HTV-X1",
        "group": "stations",
        "lat": 10.011248264710462,
        "lon": 162.0282612958055,
        "alt_km": 419.51483787940106,
        "timestamp": "2025-12-10T09:57:43.504719+00:00",
        "meta_object_name": "HTV-X1",
        "meta_object_id": "2025-241A",
        "meta_epoch": "2025-12-09T12:14:10.839552",
        "meta_mean_motion": 15.49447168,
        "meta_eccentricity": 0.00034,
        "meta_inclination": 51.631,
        "meta_ra_of_asc_node": 158.4724,
        "meta_arg_of_pericenter": 223.8185,
        "meta_mean_anomaly": 136.2534,
        "meta_ephemeris_type": 0,
        "meta_classification_type": "U",
        "meta_norad_cat_id": 66174,
        "meta_element_set_no": 999,
        "meta_rev_at_epoch": 51,
        "meta_bstar": 0.00026025969,
        "meta_mean_motion_dot": 0.00014141,
        "meta_mean_motion_ddot": 0,
        "tle_line1": "1 66174U 25241A   25343.50984768  .00014141  00000+0  26026-3 0  9991",
        "tle_line2": "2 66174  51.6310 158.4724 0003400 223.8185 136.2534 15.49447168   518"
      },
      "geometry": {
        "type": "Point",
        "coordinates": [
          162.0282612958055,
          10.011248264710462
        ]
      }
    },
    {
      "type": "Feature",
      "properties": {
        "norad_id": 66515,
        "name": "SZ-21 MODULE",
        "group": "stations",
        "lat": -41.0836263524726,
        "lon": -50.51004195736782,
        "alt_km": 380.3792798647528,
        "timestamp": "2025-12-10T09:57:43.504729+00:00",
        "meta_object_name": "SZ-21 MODULE",
        "meta_object_id": "2025-246C",
        "meta_epoch": "2025-12-10T04:10:45.551712",
        "meta_mean_motion": 15.62287681,
        "meta_eccentricity": 0.0006304,
        "meta_inclination": 41.4772,
        "meta_ra_of_asc_node": 31.6946,
        "meta_arg_of_pericenter": 246.4394,
        "meta_mean_anomaly": 113.5783,
        "meta_ephemeris_type": 0,
        "meta_classification_type": "U",
        "meta_norad_cat_id": 66515,
        "meta_element_set_no": 999,
        "meta_rev_at_epoch": 404,
        "meta_bstar": 0.00037413,
        "meta_mean_motion_dot": 0.00033821,
        "meta_mean_motion_ddot": 0,
        "tle_line1": "1 66515U 25246C   25344.17413833  .00033821  00000+0  37413-3 0  9997",
        "tle_line2": "2 66515  41.4772  31.6946 0006304 246.4394 113.5783 15.62287681  4046"
      },
      "geometry": {
        "type": "Point",
        "coordinates": [
          -50.51004195736782,
          -41.0836263524726
        ]
      }
    },
    {
      "type": "Feature",
      "properties": {
        "norad_id": 66645,
        "name": "SHENZHOU-22",
        "group": "stations",
        "lat": 23.046728938363298,
        "lon": 59.61804191833253,
        "alt_km": 381.1850839673398,
        "timestamp": "2025-12-10T09:57:43.504739+00:00",
        "meta_object_name": "SHENZHOU-22",
        "meta_object_id": "2025-272A",
        "meta_epoch": "2025-12-09T13:49:14.456064",
        "meta_mean_motion": 15.58965688,
        "meta_eccentricity": 0.00089597,
        "meta_inclination": 41.4682,
        "meta_ra_of_asc_node": 35.9133,
        "meta_arg_of_pericenter": 5.1145,
        "meta_mean_anomaly": 354.9784,
        "meta_ephemeris_type": 0,
        "meta_classification_type": "U",
        "meta_norad_cat_id": 66645,
        "meta_element_set_no": 999,
        "meta_rev_at_epoch": 26300,
        "meta_bstar": 0.00041052725,
        "meta_mean_motion_dot": 0.00032682,
        "meta_mean_motion_ddot": 0,
        "tle_line1": "1 66645U 25272A   25343.57586176  .00032682  00000+0  41053-3 0  9993",
        "tle_line2": "2 66645  41.4682  35.9133 0008959   5.1145 354.9784 15.58965688263007"
      },
      "geometry": {
        "type": "Point",
        "coordinates": [
          59.61804191833253,
          23.046728938363298
        ]
      }
    },
    {
      "type": "Feature",
      "properties": {
        "norad_id": 66664,
        "name": "SOYUZ-MS 28",
        "group": "stations",
        "lat": 10.012558187803675,
        "lon": 162.02994674514065,
        "alt_km": 419.4583841331241,
        "timestamp": "2025-12-10T09:57:43.504749+00:00",
        "meta_object_name": "SOYUZ-MS 28",
        "meta_object_id": "2025-275A",
        "meta_epoch": "2025-12-09T21:31:25.697280",
        "meta_mean_motion": 15.4945904,
        "meta_eccentricity": 0.0003347,
        "meta_inclination": 51.6313,
        "meta_ra_of_asc_node": 156.5563,
        "meta_arg_of_pericenter": 226.2924,
        "meta_mean_anomaly": 133.7787,
        "meta_ephemeris_type": 0,
        "meta_classification_type": "U",
        "meta_norad_cat_id": 66664,
        "meta_element_set_no": 999,
        "meta_rev_at_epoch": 200,
        "meta_bstar": 0.00027325,
        "meta_mean_motion_dot": 0.00014877,
        "meta_mean_motion_ddot": 0,
        "tle_line1": "1 66664U 25275A   25343.89682520  .00014877  00000+0  27325-3 0  9994",
        "tle_line2": "2 66664  51.6313 156.5563 0003347 226.2924 133.7787 15.49459040  2003"
      },
      "geometry": {
        "type": "Point",
        "coordinates": [
          162.02994674514065,
          10.012558187803675
        ]
      }
    },
    {
      "type": "Feature",
      "properties": {
        "norad_id": 66906,
        "name": "1998-067XS",
        "group": "stations",
        "lat": 26.164307657754758,
        "lon": 176.85242382695603,
        "alt_km": 414.89436253663007,
        "timestamp": "2025-12-10T09:57:43.504759+00:00",
        "meta_object_name": "1998-067XS",
        "meta_object_id": "1998-067XS",
        "meta_epoch": "2025-12-10T00:31:58.658880",
        "meta_mean_motion": 15.50350034,
        "meta_eccentricity": 0.0003912,
        "meta_inclination": 51.6303,
        "meta_ra_of_asc_node": 155.8936,
        "meta_arg_of_pericenter": 190.7132,
        "meta_mean_anomaly": 169.3774,
        "meta_ephemeris_type": 0,
        "meta_classification_type": "U",
        "meta_norad_cat_id": 66906,
        "meta_element_set_no": 999,
        "meta_rev_at_epoch": 119,
        "meta_bstar": 0.00063424,
        "meta_mean_motion_dot": 0.00036365,
        "meta_mean_motion_ddot": 0,
        "tle_line1": "1 66906U 98067XS  25344.02220670  .00036365  00000+0  63424-3 0  9998",
        "tle_line2": "2 66906  51.6303 155.8936 0003912 190.7132 169.3774 15.50350034  1196"
      },
      "geometry": {
        "type": "Point",
        "coordinates": [
          176.85242382695603,
          26.164307657754758
        ]
      }
    },
    {
      "type": "Feature",
      "properties": {
        "norad_id": 66907,
        "name": "1998-067XT",
        "group": "stations",
        "lat": 32.367016089330626,
        "lon": -175.93119380592788,
        "alt_km": 412.79744626588945,
        "timestamp": "2025-12-10T09:57:43.504769+00:00",
        "meta_object_name": "1998-067XT",
        "meta_object_id": "1998-067XT",
        "meta_epoch": "2025-12-09T12:07:37.114752",
        "meta_mean_motion": 15.50864429,
        "meta_eccentricity": 0.00048036,
        "meta_inclination": 51.6307,
        "meta_ra_of_asc_node": 158.4423,
        "meta_arg_of_pericenter": 208.5081,
        "meta_mean_anomaly": 151.5646,
        "meta_ephemeris_type": 0,
        "meta_classification_type": "U",
        "meta_norad_cat_id": 66907,
        "meta_element_set_no": 999,
        "meta_rev_at_epoch": 111,
        "meta_bstar": 0.0012921241,
        "meta_mean_motion_dot": 0.00076342,
        "meta_mean_motion_ddot": 0,
        "tle_line1": "1 66907U 98067XT  25343.50529068  .00076342  00000+0  12921-2 0  9998",
        "tle_line2": "2 66907  51.6307 158.4423 0004803 208.5081 151.5646 15.50864429  1113"
      },
      "geometry": {
        "type": "Point",
        "coordinates": [
          -175.93119380592788,
          32.367016089330626
        ]
      }
    },
    {
      "type": "Feature",
      "properties": {
        "norad_id": 66908,
        "name": "1998-067XU",
        "group": "stations",
        "lat": 33.24368115169632,
        "lon": -174.78971376048315,
        "alt_km": 412.5916441823665,
        "timestamp": "2025-12-10T09:57:43.504779+00:00",
        "meta_object_name": "1998-067XU",
        "meta_object_id": "1998-067XU",
        "meta_epoch": "2025-12-09T22:56:49.308000",
        "meta_mean_motion": 15.50986187,
        "meta_eccentricity": 0.0004997,
        "meta_inclination": 51.6304,
        "meta_ra_of_asc_node": 156.202,
        "meta_arg_of_pericenter": 209.1255,
        "meta_mean_anomaly": 150.9456,
        "meta_ephemeris_type": 0,
        "meta_classification_type": "U",
        "meta_norad_cat_id": 66908,
        "meta_element_set_no": 999,
        "meta_rev_at_epoch": 118,
        "meta_bstar": 0.0013761,
        "meta_mean_motion_dot": 0.00081745,
        "meta_mean_motion_ddot": 0,
        "tle_line1": "1 66908U 98067XU  25343.95612625  .00081745  00000+0  13761-2 0  9996",
        "tle_line2": "2 66908  51.6304 156.2020 0004997 209.1255 150.9456 15.50986187  1189"
      },
      "geometry": {
        "type": "Point",
        "coordinates": [
          -174.78971376048315,
          33.24368115169632
        ]
      }
    }
  ]
}